MALLIGYONG-1            
1 58400U 23179A   24240.59932989  .00008757  00000+0  38289-3 0  9994
2 58400  97.3922 126.2447 0000818  45.1618 314.9685 15.22313890 42588
